CCSDS_OMM_VERS = 2.0
CREATION_DATE  = 
ORIGINATOR     = 

OBJECT_NAME    = ISS (ZARYA)
OBJECT_ID      = 1998-067A
CENTER_NAME    = EARTH
REF_FRAME      = TEME
TIME_SYSTEM    = UTC
MEAN_ELEMENT_THEORY = SGP/SGP4

EPOCH          = 2026-02-01T02:43:09.183936
MEAN_MOTION    = 15.48314896
ECCENTRICITY   = .00111278
INCLINATION    = 51.6318
RA_OF_ASC_NODE = 253.1662
ARG_OF_PERICENTER = 51.9836
MEAN_ANOMALY   = 308.2155

EPHEMERIS_TYPE = 0
CLASSIFICATION_TYPE = U
NORAD_CAT_ID   = 25544
ELEMENT_SET_NO = 999
REV_AT_EPOCH   = 55066
BSTAR          = .12933381E-3
MEAN_MOTION_DOT = .6524E-4
MEAN_MOTION_DDOT = 0

CCSDS_OMM_VERS = 2.0
CREATION_DATE  = 
ORIGINATOR     = 

OBJECT_NAME    = CSS (TIANHE)
OBJECT_ID      = 2021-035A
CENTER_NAME    = EARTH
REF_FRAME      = TEME
TIME_SYSTEM    = UTC
MEAN_ELEMENT_THEORY = SGP/SGP4

EPOCH          = 2026-01-31T09:16:26.859072
MEAN_MOTION    = 15.61427822
ECCENTRICITY   = .00089098
INCLINATION    = 41.4674
RA_OF_ASC_NODE = 74.8264
ARG_OF_PERICENTER = 46.9753
MEAN_ANOMALY   = 313.1831

EPHEMERIS_TYPE = 0
CLASSIFICATION_TYPE = U
NORAD_CAT_ID   = 48274
ELEMENT_SET_NO = 999
REV_AT_EPOCH   = 27178
BSTAR          = .32370793E-3
MEAN_MOTION_DOT = .28253E-3
MEAN_MOTION_DDOT = 0

CCSDS_OMM_VERS = 2.0
CREATION_DATE  = 
ORIGINATOR     = 

OBJECT_NAME    = ISS (NAUKA)
OBJECT_ID      = 2021-066A
CENTER_NAME    = EARTH
REF_FRAME      = TEME
TIME_SYSTEM    = UTC
MEAN_ELEMENT_THEORY = SGP/SGP4

EPOCH          = 2026-02-01T02:43:09.183936
MEAN_MOTION    = 15.48314896
ECCENTRICITY   = .00111278
INCLINATION    = 51.6318
RA_OF_ASC_NODE = 253.1662
ARG_OF_PERICENTER = 51.9836
MEAN_ANOMALY   = 308.2155

EPHEMERIS_TYPE = 0
CLASSIFICATION_TYPE = U
NORAD_CAT_ID   = 49044
ELEMENT_SET_NO = 999
REV_AT_EPOCH   = 23044
BSTAR          = .12933381E-3
MEAN_MOTION_DOT = .6524E-4
MEAN_MOTION_DDOT = 0

CCSDS_OMM_VERS = 2.0
CREATION_DATE  = 
ORIGINATOR     = 

OBJECT_NAME    = FREGAT DEB
OBJECT_ID      = 2011-037PF
CENTER_NAME    = EARTH
REF_FRAME      = TEME
TIME_SYSTEM    = UTC
MEAN_ELEMENT_THEORY = SGP/SGP4

EPOCH          = 2026-01-31T07:51:38.734560
MEAN_MOTION    = 12.37389576
ECCENTRICITY   = .09194491
INCLINATION    = 51.6511
RA_OF_ASC_NODE = 52.4676
ARG_OF_PERICENTER = 333.8142
MEAN_ANOMALY   = 21.8846

EPHEMERIS_TYPE = 0
CLASSIFICATION_TYPE = U
NORAD_CAT_ID   = 49271
ELEMENT_SET_NO = 999
REV_AT_EPOCH   = 20806
BSTAR          = .66211825E-1
MEAN_MOTION_DOT = .37773E-3
MEAN_MOTION_DDOT = 0

CCSDS_OMM_VERS = 2.0
CREATION_DATE  = 
ORIGINATOR     = 

OBJECT_NAME    = CSS (WENTIAN)
OBJECT_ID      = 2022-085A
CENTER_NAME    = EARTH
REF_FRAME      = TEME
TIME_SYSTEM    = UTC
MEAN_ELEMENT_THEORY = SGP/SGP4

EPOCH          = 2026-01-31T09:16:26.859072
MEAN_MOTION    = 15.61427822
ECCENTRICITY   = .00089098
INCLINATION    = 41.4674
RA_OF_ASC_NODE = 74.8264
ARG_OF_PERICENTER = 46.9753
MEAN_ANOMALY   = 313.1831

EPHEMERIS_TYPE = 0
CLASSIFICATION_TYPE = U
NORAD_CAT_ID   = 53239
ELEMENT_SET_NO = 999
REV_AT_EPOCH   = 17384
BSTAR          = .32370793E-3
MEAN_MOTION_DOT = .28253E-3
MEAN_MOTION_DDOT = 0

CCSDS_OMM_VERS = 2.0
CREATION_DATE  = 
ORIGINATOR     = 

OBJECT_NAME    = CSS (MENGTIAN)
OBJECT_ID      = 2022-143A
CENTER_NAME    = EARTH
REF_FRAME      = TEME
TIME_SYSTEM    = UTC
MEAN_ELEMENT_THEORY = SGP/SGP4

EPOCH          = 2026-01-31T09:16:26.859072
MEAN_MOTION    = 15.61427822
ECCENTRICITY   = .00089098
INCLINATION    = 41.4674
RA_OF_ASC_NODE = 74.8264
ARG_OF_PERICENTER = 46.9753
MEAN_ANOMALY   = 313.1831

EPHEMERIS_TYPE = 0
CLASSIFICATION_TYPE = U
NORAD_CAT_ID   = 54216
ELEMENT_SET_NO = 999
REV_AT_EPOCH   = 15864
BSTAR          = .32370793E-3
MEAN_MOTION_DOT = .28253E-3
MEAN_MOTION_DDOT = 0

CCSDS_OMM_VERS = 2.0
CREATION_DATE  = 
ORIGINATOR     = 

OBJECT_NAME    = PROGRESS-MS 31
OBJECT_ID      = 2025-146A
CENTER_NAME    = EARTH
REF_FRAME      = TEME
TIME_SYSTEM    = UTC
MEAN_ELEMENT_THEORY = SGP/SGP4

EPOCH          = 2026-02-01T02:43:09.183936
MEAN_MOTION    = 15.48314896
ECCENTRICITY   = .00111278
INCLINATION    = 51.6318
RA_OF_ASC_NODE = 253.1662
ARG_OF_PERICENTER = 51.9836
MEAN_ANOMALY   = 308.2155

EPHEMERIS_TYPE = 0
CLASSIFICATION_TYPE = U
NORAD_CAT_ID   = 64751
ELEMENT_SET_NO = 999
REV_AT_EPOCH   = 675
BSTAR          = .12933381E-3
MEAN_MOTION_DOT = .6524E-4
MEAN_MOTION_DDOT = 0

CCSDS_OMM_VERS = 2.0
CREATION_DATE  = 
ORIGINATOR     = 

OBJECT_NAME    = TIANZHOU-9
OBJECT_ID      = 2025-149A
CENTER_NAME    = EARTH
REF_FRAME      = TEME
TIME_SYSTEM    = UTC
MEAN_ELEMENT_THEORY = SGP/SGP4

EPOCH          = 2026-01-31T09:16:26.859072
MEAN_MOTION    = 15.61427822
ECCENTRICITY   = .00089098
INCLINATION    = 41.4674
RA_OF_ASC_NODE = 74.8264
ARG_OF_PERICENTER = 46.9753
MEAN_ANOMALY   = 313.1831

EPHEMERIS_TYPE = 0
CLASSIFICATION_TYPE = U
NORAD_CAT_ID   = 64786
ELEMENT_SET_NO = 999
REV_AT_EPOCH   = 25530
BSTAR          = .32370793E-3
MEAN_MOTION_DOT = .28253E-3
MEAN_MOTION_DDOT = 0

CCSDS_OMM_VERS = 2.0
CREATION_DATE  = 
ORIGINATOR     = 

OBJECT_NAME    = DRAGON CRS-33
OBJECT_ID      = 2025-186A
CENTER_NAME    = EARTH
REF_FRAME      = TEME
TIME_SYSTEM    = UTC
MEAN_ELEMENT_THEORY = SGP/SGP4

EPOCH          = 2026-02-01T02:43:09.183936
MEAN_MOTION    = 15.48314896
ECCENTRICITY   = .00111278
INCLINATION    = 51.6318
RA_OF_ASC_NODE = 253.1662
ARG_OF_PERICENTER = 51.9836
MEAN_ANOMALY   = 308.2155

EPHEMERIS_TYPE = 0
CLASSIFICATION_TYPE = U
NORAD_CAT_ID   = 65304
ELEMENT_SET_NO = 999
REV_AT_EPOCH   = 11
BSTAR          = .12933381E-3
MEAN_MOTION_DOT = .6524E-4
MEAN_MOTION_DDOT = 0

CCSDS_OMM_VERS = 2.0
CREATION_DATE  = 
ORIGINATOR     = 

OBJECT_NAME    = PROGRESS-MS 32
OBJECT_ID      = 2025-204A
CENTER_NAME    = EARTH
REF_FRAME      = TEME
TIME_SYSTEM    = UTC
MEAN_ELEMENT_THEORY = SGP/SGP4

EPOCH          = 2026-02-01T02:43:09.183936
MEAN_MOTION    = 15.48314896
ECCENTRICITY   = .00111278
INCLINATION    = 51.6318
RA_OF_ASC_NODE = 253.1662
ARG_OF_PERICENTER = 51.9836
MEAN_ANOMALY   = 308.2155

EPHEMERIS_TYPE = 0
CLASSIFICATION_TYPE = U
NORAD_CAT_ID   = 65586
ELEMENT_SET_NO = 999
REV_AT_EPOCH   = 27
BSTAR          = .12933381E-3
MEAN_MOTION_DOT = .6524E-4
MEAN_MOTION_DDOT = 0

CCSDS_OMM_VERS = 2.0
CREATION_DATE  = 
ORIGINATOR     = 

OBJECT_NAME    = CYGNUS NG-23
OBJECT_ID      = 2025-208A
CENTER_NAME    = EARTH
REF_FRAME      = TEME
TIME_SYSTEM    = UTC
MEAN_ELEMENT_THEORY = SGP/SGP4

EPOCH          = 2026-02-01T02:43:09.183936
MEAN_MOTION    = 15.48314896
ECCENTRICITY   = .00111278
INCLINATION    = 51.6318
RA_OF_ASC_NODE = 253.1662
ARG_OF_PERICENTER = 51.9836
MEAN_ANOMALY   = 308.2155

EPHEMERIS_TYPE = 0
CLASSIFICATION_TYPE = U
NORAD_CAT_ID   = 65616
ELEMENT_SET_NO = 999
REV_AT_EPOCH   = 22
BSTAR          = .12933381E-3
MEAN_MOTION_DOT = .6524E-4
MEAN_MOTION_DDOT = 0

CCSDS_OMM_VERS = 2.0
CREATION_DATE  = 
ORIGINATOR     = 

OBJECT_NAME    = 1998-067XK
OBJECT_ID      = 1998-067XK
CENTER_NAME    = EARTH
REF_FRAME      = TEME
TIME_SYSTEM    = UTC
MEAN_ELEMENT_THEORY = SGP/SGP4

EPOCH          = 2026-01-31T22:54:23.726592
MEAN_MOTION    = 15.80596168
ECCENTRICITY   = .00038124
INCLINATION    = 51.6232
RA_OF_ASC_NODE = 240.0713
ARG_OF_PERICENTER = 195.4345
MEAN_ANOMALY   = 164.6541

EPHEMERIS_TYPE = 0
CLASSIFICATION_TYPE = U
NORAD_CAT_ID   = 65731
ELEMENT_SET_NO = 999
REV_AT_EPOCH   = 2104
BSTAR          = .91194351E-3
MEAN_MOTION_DOT = .181172E-2
MEAN_MOTION_DDOT = 0

