ISS (ZARYA)             
1 25544U 98067A   26032.11330074  .00006524  00000+0  12933-3 0  9999
2 25544  51.6318 253.1662 0011127  51.9836 308.2155 15.48314896550660
CSS (TIANHE)            
1 48274U 21035A   26031.38642198  .00028253  00000+0  32371-3 0  9997
2 48274  41.4674  74.8264 0008909  46.9753 313.1831 15.61427822271787
ISS (NAUKA)             
1 49044U 21066A   26032.11330074  .00006524  00000+0  12933-3 0  9995
2 49044  51.6318 253.1662 0011127  51.9836 308.2155 15.48314896230442
FREGAT DEB              
1 49271U 11037PF  26031.32753165  .00037773  00000+0  66212-1 0  9993
2 49271  51.6511  52.4676 0919449 333.8142  21.8846 12.37389576208060
CSS (WENTIAN)           
1 53239U 22085A   26031.38642198  .00028253  00000+0  32371-3 0  9990
2 53239  41.4674  74.8264 0008909  46.9753 313.1831 15.61427822173842
CSS (MENGTIAN)          
1 54216U 22143A   26031.38642198  .00028253  00000+0  32371-3 0  9991
2 54216  41.4674  74.8264 0008909  46.9753 313.1831 15.61427822158649
PROGRESS-MS 31          
1 64751U 25146A   26032.11330074  .00006524  00000+0  12933-3 0  9990
2 64751  51.6318 253.1662 0011127  51.9836 308.2155 15.48314896  6759
TIANZHOU-9              
1 64786U 25149A   26031.38642198  .00028253  00000+0  32371-3 0  9993
2 64786  41.4674  74.8264 0008909  46.9753 313.1831 15.61427822255303
DRAGON CRS-33           
1 65304U 25186A   26032.11330074  .00006524  00000+0  12933-3 0  9999
2 65304  51.6318 253.1662 0011127  51.9836 308.2155 15.48314896   118
PROGRESS-MS 32          
1 65586U 25204A   26032.11330074  .00006524  00000+0  12933-3 0  9992
2 65586  51.6318 253.1662 0011127  51.9836 308.2155 15.48314896   277
CYGNUS NG-23            
1 65616U 25208A   26032.11330074  .00006524  00000+0  12933-3 0  9990
2 65616  51.6318 253.1662 0011127  51.9836 308.2155 15.48314896   226
1998-067XK              
1 65731U 98067XK  26031.95444128  .00181172  00000+0  91194-3 0  9997
2 65731  51.6232 240.0713 0003812 195.4345 164.6541 15.80596168 21048
